ELEKTRO-L 3             
1 44903U 19095A   26189.59134855 -.00000082  00000+0  00000+0 0  9999
2 44903   0.3085  82.1389 0001416  15.9957 117.2860  1.00271788 23922
SHIJIAN-20 (SJ-20)      
1 44910U 19097A   26189.29445780  .00000147  00000+0  00000+0 0  9999
2 44910   4.9692  74.8039 0015306  56.1364 306.1987  1.00266138 23917
TJS-5                   
1 44978U 20002A   26189.54657348 -.00000328  00000+0  00000+0 0  9996
2 44978   0.0459  71.4542 0007952 343.6092 175.7180  1.00272039 23924
GSAT-30                 
1 45026U 20005A   26189.58723568 -.00000150  00000+0  00000+0 0  9999
2 45026   0.0308  94.0356 0003269 358.4377 128.4818  1.00269908 23725
EUTELSAT KONNECT        
1 45027U 20005B   26189.35836316  .00000064  00000+0  00000+0 0  9994
2 45027   0.0673  93.9251 0002048 138.2788 190.3345  1.00268676 24542
JCSAT-17                
1 45245U 20013A   26189.42197560 -.00000302  00000+0  00000+0 0  9990
2 45245   5.3918 357.0541 0002961 123.2298  94.0243  1.00272196 23441
GEO-KOMPSAT-2B          
1 45246U 20013B   26188.74080315 -.00000329  00000+0  00000+0 0  9993
2 45246   0.0437 205.2421 0000783  29.2859  86.1266  1.00270557 23489
BEIDOU-3 G2             
1 45344U 20017A   26189.58671568 -.00000128  00000+0  00000+0 0  9992
2 45344   2.9047  47.6348 0002297  55.0247 115.1677  1.00270352 23473
AEHF-6 (USA 298)        
1 45465U 20022B   26189.61101360 -.00000281  00000+0  00000+0 0  9994
2 45465   2.5034 301.3917 0042003  15.6272 327.2482  1.00274126 23226
BEIDOU-3 G3             
1 45807U 20040A   26189.62936097 -.00000340  00000+0  00000+0 0  9994
2 45807   2.4967  67.5088 0001846 329.6562 226.4999  1.00267463 22284
APSTAR-6D               
1 45863U 20045A   26189.68076803 -.00000302  00000+0  00000+0 0  9995
2 45863   0.0387  82.1879 0002869  18.0674 205.4960  1.00282578 22072
KOREASAT 116            
1 45920U 20048A   26189.57278201 -.00000347  00000+0  00000+0 0  9995
2 45920   0.0169  10.4025 0000856  96.4014 142.1477  1.00270401 21850
EXPRESS 103             
1 45985U 20053A   26189.62415369 -.00000266  00000+0  00000+0 0  9996
2 45985   0.0294 258.8836 0001560 225.0850 123.8091  1.00272471 21867
EXPRESS 80              
1 45986U 20053B   26188.98355417  .00000000  00000+0  00000+0 0  9997
2 45986   0.0190  13.0598 0001763 189.5450 157.3875  1.00270213 21835
BSAT-4B                 
1 46112U 20056A   26189.02229209 -.00000335  00000+0  00000+0 0  9999
2 46112   0.0459 196.9203 0004164 291.9456 274.9731  1.00272106 21594
MEV-2                   
1 46113U 20056B   26189.42764663  .00000003  00000+0  00000+0 0  9993
2 46113   0.0465 261.5797 0000276 358.5008 179.2480  1.00267189 80893
GALAXY 30 (G-30)        
1 46114U 20056C   26189.54602083  .00000052  00000+0  00000+0 0  9998
2 46114   0.0161  50.2715 0002076  58.5145 249.2822  1.00270721 21506
GAOFEN-13 01            
1 46610U 20071A   26189.59416904 -.00000348  00000+0  00000+0 0  9995
2 46610   0.4501  86.2620 0045093 120.2474  52.2122  1.00269419 21137
TIANTONG-1 2            
1 46916U 20082A   26189.52422552 -.00000341  00000+0  00000+0 0  9998
2 46916   0.7654 330.5581 0001452 133.7243 135.8702  1.00270352 20862
LUCAS (JDRS-1)          
1 47202U 20089A   26189.58879568 -.00000221  00000+0  00000+0 0  9990
2 47202   0.0453 269.2957 0001770 188.3843 131.6216  1.00272805 20635
SXM-7                   
1 47240U 20096A   26189.55390753 -.00000190  00000+0  00000+0 0  9996
2 47240   0.0252 100.8151 0003669  22.0188 277.9216  1.00270173  7652
CMS-01                  
1 47256U 20099A   26189.58723568 -.00000150  00000+0  00000+0 0  9999
2 47256   0.0576  92.2358 0003310 177.0458 311.6522  1.00272053 20419
TURKSAT 5A              
1 47306U 21001A   26188.93536767  .00000169  00000+0  00000+0 0  9999
2 47306   0.0175  69.5101 0000160 164.1557  59.8872  1.00271226 20173
TIANTONG-1 3            
1 47321U 21003A   26189.58697568 -.00000140  00000+0  00000+0 0  9997
2 47321   1.7402 340.5866 0003295 134.1918 104.6225  1.00271824 20176
TJS-6                   
1 47613U 21010A   26189.53484078  .00000057  00000+0  00000+0 0  9990
2 47613   0.1983 262.3700 0003254 234.1571 160.9594  1.00271421 20027
SBIRS GEO-5 (USA 315)   
1 48618U 21042A   26189.44680005 -.00000252  00000+0  00000+0 0  9997
2 48618   5.0778 329.2705 0001555 148.9749  62.8161  1.00271085 18986
FENGYUN 4B              
1 48808U 21047A   26189.67142696 -.00000315  00000+0  00000+0 0  9997
2 48808   0.2032  79.4935 0005695 274.4375 279.0542  1.00266159 18784
SXM-8                   
1 48838U 21049A   26189.12625411 -.00000190  00000+0  00000+0 0  9994
2 48838   0.0139  30.1805 0005457   1.4303 214.7844  1.00272212 18797
TIANLIAN 1-05           
1 49011U 21063A   26189.36026984  .00000122  00000+0  00000+0 0  9994
2 49011   1.6451  80.5293 0000874  76.0116 276.3183  1.00271429 18286
STAR ONE D2             
1 49055U 21069A   26189.27183770  .00000000  00000+0  00000+0 0  9990
2 49055   0.0149  28.5850 0002286  99.0494 186.3562  1.00269347 18158
EUTELSAT QUANTUM        
1 49056U 21069B   26189.43770001  .00000141  00000+0  00000+0 0  9994
2 49056   0.0314 297.5913 0002223 173.2805  20.8146  1.00272955 18141
ZHONGXING-2E            
1 49062U 21071A   26189.30511786 -.00000276  00000+0  00000+0 0  9993
2 49062   0.0481 109.6066 0001886  44.0133 340.5578  1.00270896 18253
