OBJECT_NAME,OBJECT_ID,EPOCH,MEAN_MOTION,ECCENTRICITY,INCLINATION,RA_OF_ASC_NODE,ARG_OF_PERICENTER,MEAN_ANOMALY,EPHEMERIS_TYPE,CLASSIFICATION_TYPE,NORAD_CAT_ID,ELEMENT_SET_NO,REV_AT_EPOCH,BSTAR,MEAN_MOTION_DOT,MEAN_MOTION_DDOT
ELEKTRO-L 3,2019-095A,2026-07-08T14:11:32.514720,1.00271788,.00014167,0.3085,82.1389,15.9957,117.2860,0,U,44903,999,2392,0,-.82E-6,0
SHIJIAN-20 (SJ-20),2019-097A,2026-07-08T07:04:01.153920,1.00266138,.0015306,4.9692,74.8039,56.1364,306.1987,0,U,44910,999,2391,0,.147E-5,0
TJS-5,2020-002A,2026-07-08T13:07:03.948672,1.00272039,.0007952,0.0459,71.4542,343.6092,175.7180,0,U,44978,999,2392,0,-.328E-5,0
GSAT-30,2020-005A,2026-07-08T14:05:37.162752,1.00269908,.00032699,0.0308,94.0356,358.4377,128.4818,0,U,45026,999,2372,0,-.15E-5,0
EUTELSAT KONNECT,2020-005B,2026-07-08T08:36:02.577024,1.00268676,.00020485,0.0673,93.9251,138.2788,190.3345,0,U,45027,999,2454,0,.64E-6,0
JCSAT-17,2020-013A,2026-07-08T10:07:38.691840,1.00272196,.00029612,5.3918,357.0541,123.2298,94.0243,0,U,45245,999,2344,0,-.302E-5,0
GEO-KOMPSAT-2B,2020-013B,2026-07-07T17:46:45.392160,1.00270557,.00007839,0.0437,205.2421,29.2859,86.1266,0,U,45246,999,2348,0,-.329E-5,0
BEIDOU-3 G2,2020-017A,2026-07-08T14:04:52.234752,1.00270352,.00022972,2.9047,47.6348,55.0247,115.1677,0,U,45344,999,2347,0,-.128E-5,0
AEHF-6 (USA 298),2020-022B,2026-07-08T14:39:51.575040,1.00274126,.00420037,2.5034,301.3917,15.6272,327.2482,0,U,45465,999,2322,0,-.281E-5,0
BEIDOU-3 G3,2020-040A,2026-07-08T15:06:16.787808,1.00267463,.0001846,2.4967,67.5088,329.6562,226.4999,0,U,45807,999,2228,0,-.34E-5,0
APSTAR-6D,2020-045A,2026-07-08T16:20:18.357792,1.00282578,.0002869,0.0387,82.1879,18.0674,205.4960,0,U,45863,999,2207,0,-.302E-5,0
KOREASAT 116,2020-048A,2026-07-08T13:44:48.365664,1.00270401,.00008563,0.0169,10.4025,96.4014,142.1477,0,U,45920,999,2185,0,-.347E-5,0
EXPRESS 103,2020-053A,2026-07-08T14:58:46.878816,1.00272471,.00015602,0.0294,258.8836,225.0850,123.8091,0,U,45985,999,2186,0,-.266E-5,0
EXPRESS 80,2020-053B,2026-07-07T23:36:19.080288,1.00270213,.00017634,0.0190,13.0598,189.5450,157.3875,0,U,45986,999,2183,0,0,0
BSAT-4B,2020-056A,2026-07-08T00:32:06.036576,1.00272106,.00041641,0.0459,196.9203,291.9456,274.9731,0,U,46112,999,2159,0,-.335E-5,0
MEV-2,2020-056B,2026-07-08T10:15:48.668832,1.00267189,.00002766,0.0465,261.5797,358.5008,179.2480,0,U,46113,999,8089,0,.3E-7,0
GALAXY 30 (G-30),2020-056C,2026-07-08T13:06:16.199712,1.00270721,.00020764,0.0161,50.2715,58.5145,249.2822,0,U,46114,999,2150,0,.52E-6,0
GAOFEN-13 01,2020-071A,2026-07-08T14:15:36.205056,1.00269419,.00450938,0.4501,86.2620,120.2474,52.2122,0,U,46610,999,2113,0,-.348E-5,0
TIANTONG-1 2,2020-082A,2026-07-08T12:34:53.084928,1.00270352,.00014528,0.7654,330.5581,133.7243,135.8702,0,U,46916,999,2086,0,-.341E-5,0
LUCAS (JDRS-1),2020-089A,2026-07-08T14:07:51.946752,1.00272805,.00017709,0.0453,269.2957,188.3843,131.6216,0,U,47202,999,2063,0,-.221E-5,0
SXM-7,2020-096A,2026-07-08T13:17:37.610592,1.00270173,.00036698,0.0252,100.8151,22.0188,277.9216,0,U,47240,999,765,0,-.19E-5,0
CMS-01,2020-099A,2026-07-08T14:05:37.162752,1.00272053,.000331,0.0576,92.2358,177.0458,311.6522,0,U,47256,999,2041,0,-.15E-5,0
TURKSAT 5A,2021-001A,2026-07-07T22:26:55.766688,1.00271226,.00001607,0.0175,69.5101,164.1557,59.8872,0,U,47306,999,2017,0,.169E-5,0
TIANTONG-1 3,2021-003A,2026-07-08T14:05:14.698752,1.00271824,.00032959,1.7402,340.5866,134.1918,104.6225,0,U,47321,999,2017,0,-.14E-5,0
TJS-6,2021-010A,2026-07-08T12:50:10.243392,1.00271421,.00032547,0.1983,262.3700,234.1571,160.9594,0,U,47613,999,2002,0,.57E-6,0
SBIRS GEO-5 (USA 315),2021-042A,2026-07-08T10:43:23.524320,1.00271085,.00015553,5.0778,329.2705,148.9749,62.8161,0,U,48618,999,1898,0,-.252E-5,0
FENGYUN 4B,2021-047A,2026-07-08T16:06:51.289344,1.00266159,.0005695,0.2032,79.4935,274.4375,279.0542,0,U,48808,999,1878,0,-.315E-5,0
SXM-8,2021-049A,2026-07-08T03:01:48.355104,1.00272212,.0005457,0.0139,30.1805,1.4303,214.7844,0,U,48838,999,1879,0,-.19E-5,0
TIANLIAN 1-05,2021-063A,2026-07-08T08:38:47.314176,1.00271429,.00008745,1.6451,80.5293,76.0116,276.3183,0,U,49011,999,1828,0,.122E-5,0
STAR ONE D2,2021-069A,2026-07-08T06:31:26.777280,1.00269347,.00022863,0.0149,28.5850,99.0494,186.3562,0,U,49055,999,1815,0,0,0
EUTELSAT QUANTUM,2021-069B,2026-07-08T10:30:17.280864,1.00272955,.00022232,0.0314,297.5913,173.2805,20.8146,0,U,49056,999,1814,0,.141E-5,0
ZHONGXING-2E,2021-071A,2026-07-08T07:19:22.183104,1.00270896,.00018866,0.0481,109.6066,44.0133,340.5578,0,U,49062,999,1825,0,-.276E-5,0
